H-2A R/B                
1 28932U 06002B   26202.19328338  .00006735  00000+0  31934-3 0  9994
2 28932  98.2604   1.1170 0051109 145.8069 214.6472 15.18507045114686
RESURS-DK 1             
1 29228U 06021A   26202.14319399  .00001263  00000+0  76793-4 0  9990
2 29228  69.9300 251.6453 0007450 264.6911  95.3405 15.13333275107718
CZ-4B R/B               
1 29507U 06046C   26202.13694408  .00003333  00000+0  16504-3 0  9996
2 29507  97.5433 246.6402 0033157 161.6783 198.5654 15.18011351 80283
CZ-2C R/B               
1 31114U 07010B   26202.22741141  .00000050  00000+0  42351-4 0  9995
2 31114  98.4120 308.9175 0057775 265.8614  93.5959 14.20282847998679
COSMO-SKYMED 1          
1 31598U 07023A   26202.28703443  .00002213  00000+0  19631-3 0  9991
2 31598  97.8855  34.4321 0001808  95.7808 264.3620 14.97242515 34898
COSMOS 2428             
1 31792U 07029A   26201.41772786  .00000302  00000+0  18778-3 0  9991
2 31792  70.9382 284.7069 0007280  70.9124 289.2785 14.12937996982842
SL-16 R/B               
1 31793U 07029B   26202.10923976  .00000314  00000+0  18756-3 0  9997
2 31793  70.9741 251.9206 0001907 258.9783 127.5559 14.14855407984247
KORONAS-FOTON           
1 33504U 09003A   26201.86353676  .00009635  00000+0  19365-3 0  9991
2 33504  82.4306 137.1137 0011668  44.5676 315.6509 15.46390634966301
CZ-2C R/B               
1 37731U 11030B   26202.30275428  .00000625  00000+0  84873-4 0  9995
2 37731  97.8672 157.0792 0050668 275.7191 246.9637 14.81539691809876
H-2A R/B                
1 38341U 12025E   26201.93874309  .00001267  00000+0  11766-3 0  9992
2 38341  98.4849 179.8748 0042720 235.5500 124.1679 14.95848600768132
SHIJIAN-16 (SJ-16)      
1 39358U 13057A   26202.28841793  .00001463  00000+0  14440-3 0  9997
2 39358  74.9734 292.0943 0015543 150.1977 210.0100 14.92683585691439
SL-4 R/B                
1 39679U 14021B   26202.27604877  .00007538  00000+0  15676-3 0  9995
2 39679  51.6069  43.6894 0089391 230.8868 128.4145 15.42563161676875
ALOS-2                  
1 39766U 14029A   26201.75270015  .00000566  00000+0  82710-4 0  9993
2 39766  97.9225 298.4370 0001588  91.3293 268.8100 14.79473928656544
YAOGAN-29               
1 41038U 15069A   26202.24888877  .00000533  00000+0  72023-4 0  9999
2 41038  98.0021 230.9338 0000097  47.1565 312.9657 14.83110502575678
ASTRO-H (HITOMI)        
1 41337U 16012A   26202.06397996  .00001606  00000+0  88999-4 0  9998
2 41337  30.9973 215.3771 0009681 234.1906 125.7832 15.10647975572418
HXMT (HUIYAN)           
1 42758U 17034A   26202.27072208  .00003358  00000+0  16838-3 0  9998
2 42758  43.0152 353.2184 0031490 359.0435   1.0349 15.18721747502844
SAOCOM 1A               
1 43641U 18076A   26202.29640684  .00000411  00000+0  58168-4 0  9998
2 43641  97.8896  28.5495 0001503  85.8474 274.2910 14.82150903421156
H-2A R/B                
1 43682U 18084L   26202.11259161  .00015578  00000+0  31533-3 0  9995
2 43682  98.8520  88.4442 0020236 278.2347  81.6603 15.46347790426364
SAOCOM 1B               
1 46265U 20059A   26202.32761128 -.00000260  00000+0 -26125-4 0  9990
2 46265  97.8900  27.6767 0001494  86.7204 273.4180 14.82143216318546
CSS (TIANHE)            
1 48274U 21035A   26202.11164244  .00010192  00000+0  13514-3 0  9990
2 48274  41.4684 115.9697 0001843 304.6724  55.3940 15.58228865298469
COSMOS 2550             
1 48865U 21056A   26202.25829186  .00003985  00000+0  12675-3 0  9996
2 48865  67.1442 356.8417 0008554 269.4218  90.5956 15.33866752283941
CZ-2C R/B               
1 52794U 22058K   26202.12427575  .00033532  00000+0  34156-3 0  9996
2 52794  50.1862 346.6119 0030013  47.3751 312.9747 15.64187914230953
CZ-2C R/B               
1 54039U 22132E   26201.98283030  .00052171  00000+0  34286-3 0  9996
2 54039  97.2891 210.6196 0008520 314.1312  45.9252 15.75518474211260
GSLV R/B                
1 54149U 22138AN  26201.80036061  .00001562  00000+0  13127-3 0  9994
2 54149  87.3815 121.6972 0022861  33.5052 326.7621 14.97398927203845
XRISM                   
1 57800U 23137A   26202.17501685  .00003023  00000+0  16297-3 0  9996
2 57800  31.0014 139.3952 0007841 305.5740  54.4168 15.12697406158011
ACS3                    
1 59588U 24077B   26200.70021256  .00003608  00000+0  25000-2 0  9993
2 59588  97.1775 112.2879 0129376  31.3060 329.5729 13.95428126112578
SPACEMOBILE-003         
1 61045U 24163A   26201.99683206  .00002028  00000+0  10564-3 0  9996
2 61045  52.9677 153.9638 0004157 213.3860 146.6872 15.20726769102911
SPACEMOBILE-005         
1 61046U 24163B   26202.24316610 -.00006478  00000+0 -27632-3 0  9997
2 61046  52.9742 152.7857 0008491 213.4747 146.5712 15.20685710102940
SPACEMOBILE-001         
1 61047U 24163C   26201.25568385 -.00000135  00000+0  86599-5 0  9998
2 61047  52.9710 157.0335 0006953 209.4162 150.6442 15.20700764102798
SPACEMOBILE-002         
1 61048U 24163D   26202.15995894  .00014941  00000+0  68857-3 0  9992
2 61048  52.9778 152.9178 0004354 211.0455 149.0283 15.20486096102939
