OBJECT_NAME,OBJECT_ID,EPOCH,MEAN_MOTION,ECCENTRICITY,INCLINATION,RA_OF_ASC_NODE,ARG_OF_PERICENTER,MEAN_ANOMALY,EPHEMERIS_TYPE,CLASSIFICATION_TYPE,NORAD_CAT_ID,ELEMENT_SET_NO,REV_AT_EPOCH,BSTAR,MEAN_MOTION_DOT,MEAN_MOTION_DDOT
H-2A R/B,2006-002B,2026-07-21T04:38:19.684032,15.18507045,.00511094,98.2604,1.1170,145.8069,214.6472,0,U,28932,999,11468,.31934058E-3,.6735E-4,0
RESURS-DK 1,2006-021A,2026-07-21T03:26:11.960736,15.13333275,.00074505,69.9300,251.6453,264.6911,95.3405,0,U,29228,999,10771,.76793046E-4,.1263E-4,0
CZ-4B R/B,2006-046C,2026-07-21T03:17:11.968512,15.18011351,.00331579,97.5433,246.6402,161.6783,198.5654,0,U,29507,999,8028,.16504306E-3,.3333E-4,0
CZ-2C R/B,2007-010B,2026-07-21T05:27:28.345824,14.20282847,.00577751,98.4120,308.9175,265.8614,93.5959,0,U,31114,999,99867,.42350702E-4,.5E-6,0
COSMO-SKYMED 1,2007-023A,2026-07-21T06:53:19.774752,14.97242515,.00018089,97.8855,34.4321,95.7808,264.3620,0,U,31598,999,3489,.19631035E-3,.2213E-4,0
COSMOS 2428,2007-029A,2026-07-20T10:01:31.687104,14.12937996,.00072806,70.9382,284.7069,70.9124,289.2785,0,U,31792,999,98284,.1877841E-3,.302E-5,0
SL-16 R/B,2007-029B,2026-07-21T02:37:18.315264,14.14855407,.00019072,70.9741,251.9206,258.9783,127.5559,0,U,31793,999,98424,.18755989E-3,.314E-5,0
KORONAS-FOTON,2009-003A,2026-07-20T20:43:29.576064,15.46390634,.00116681,82.4306,137.1137,44.5676,315.6509,0,U,33504,999,96630,.19365247E-3,.9635E-4,0
CZ-2C R/B,2011-030B,2026-07-21T07:15:57.969792,14.81539691,.00506682,97.8672,157.0792,275.7191,246.9637,0,U,37731,999,80987,.84872549E-4,.625E-5,0
H-2A R/B,2012-025E,2026-07-20T22:31:47.402976,14.95848600,.004272,98.4849,179.8748,235.5500,124.1679,0,U,38341,999,76813,.11766039E-3,.1267E-4,0
SHIJIAN-16 (SJ-16),2013-057A,2026-07-21T06:55:19.309152,14.92683585,.00155432,74.9734,292.0943,150.1977,210.0100,0,U,39358,999,69143,.1444049E-3,.1463E-4,0
SL-4 R/B,2014-021B,2026-07-21T06:37:30.613728,15.42563161,.00893912,51.6069,43.6894,230.8868,128.4145,0,U,39679,999,67687,.15675598E-3,.7538E-4,0
ALOS-2,2014-029A,2026-07-20T18:03:53.292960,14.79473928,.00015881,97.9225,298.4370,91.3293,268.8100,0,U,39766,999,65654,.82710118E-4,.566E-5,0
YAOGAN-29,2015-069A,2026-07-21T05:58:23.989728,14.83110502,.00000974,98.0021,230.9338,47.1565,312.9657,0,U,41038,999,57567,.72023014E-4,.533E-5,0
ASTRO-H (HITOMI),2016-012A,2026-07-21T01:32:07.868544,15.10647975,.00096811,30.9973,215.3771,234.1906,125.7832,0,U,41337,999,57241,.88998909E-4,.1606E-4,0
HXMT (HUIYAN),2017-034A,2026-07-21T06:29:50.387712,15.18721747,.00314909,43.0152,353.2184,359.0435,1.0349,0,U,42758,999,50284,.16837616E-3,.3358E-4,0
SAOCOM 1A,2018-076A,2026-07-21T07:06:49.550976,14.82150903,.00015037,97.8896,28.5495,85.8474,274.2910,0,U,43641,999,42115,.58168199E-4,.411E-5,0
H-2A R/B,2018-084L,2026-07-21T02:42:07.915104,15.46347790,.00202361,98.8520,88.4442,278.2347,81.6603,0,U,43682,999,42636,.31533303E-3,.15578E-3,0
SAOCOM 1B,2020-059A,2026-07-21T07:51:45.614592,14.82143216,.00014941,97.8900,27.6767,86.7204,273.4180,0,U,46265,999,31854,-.26124621E-4,-.26E-5,0
CSS (TIANHE),2021-035A,2026-07-21T02:40:45.906816,15.58228865,.00018431,41.4684,115.9697,304.6724,55.3940,0,U,48274,999,29846,.13514015E-3,.10192E-3,0
COSMOS 2550,2021-056A,2026-07-21T06:11:56.416704,15.33866752,.00085542,67.1442,356.8417,269.4218,90.5956,0,U,48865,999,28394,.1267461E-3,.3985E-4,0
CZ-2C R/B,2022-058K,2026-07-21T02:58:57.424800,15.64187914,.00300132,50.1862,346.6119,47.3751,312.9747,0,U,52794,999,23095,.34156298E-3,.33532E-3,0
CZ-2C R/B,2022-132E,2026-07-20T23:35:16.537920,15.75518474,.000852,97.2891,210.6196,314.1312,45.9252,0,U,54039,999,21126,.34286433E-3,.52171E-3,0
GSLV R/B,2022-138AN,2026-07-20T19:12:31.156704,14.97398927,.00228614,87.3815,121.6972,33.5052,326.7621,0,U,54149,999,20384,.13126861E-3,.1562E-4,0
XRISM,2023-137A,2026-07-21T04:12:01.455840,15.12697406,.00078412,31.0014,139.3952,305.5740,54.4168,0,U,57800,999,15801,.1629673E-3,.3023E-4,0
ACS3,2024-077B,2026-07-19T16:48:18.365184,13.95428126,.01293761,97.1775,112.2879,31.3060,329.5729,0,U,59588,999,11257,.25000287E-2,.3608E-4,0
SPACEMOBILE-003,2024-163A,2026-07-20T23:55:26.289984,15.20726769,.00041577,52.9677,153.9638,213.3860,146.6872,0,U,61045,999,10291,.10564199E-3,.2028E-4,0
SPACEMOBILE-005,2024-163B,2026-07-21T05:50:09.551040,15.20685710,.00084917,52.9742,152.7857,213.4747,146.5712,0,U,61046,999,10294,-.27632126E-3,-.6478E-4,0
SPACEMOBILE-001,2024-163C,2026-07-20T06:08:11.084640,15.20700764,.00069537,52.9710,157.0335,209.4162,150.6442,0,U,61047,999,10279,.8659876E-5,-.135E-5,0
SPACEMOBILE-002,2024-163D,2026-07-21T03:50:20.452416,15.20486096,.00043548,52.9778,152.9178,211.0455,149.0283,0,U,61048,999,10293,.68857266E-3,.14941E-3,0
